[{"OBJECT_NAME":"STARLINK-36742","OBJECT_ID":"2026-036D","EPOCH":"2026-03-05T14:00:01.999872","MEAN_MOTION":15.820044,"ECCENTRICITY":0.00019152,"INCLINATION":42.9978,"RA_OF_ASC_NODE":274.9428,"ARG_OF_PERICENTER":243.996,"MEAN_ANOMALY":347.2249,"EPHEMERIS_TYPE":0,"CLASSIFICATION_TYPE":"U","NORAD_CAT_ID":67907,"ELEMENT_SET_NO":999,"REV_AT_EPOCH":298,"BSTAR":0.00010466739,"MEAN_MOTION_DOT":0.00021549,"MEAN_MOTION_DDOT":0},{"OBJECT_NAME":"STARLINK-36827","OBJECT_ID":"2026-036E","EPOCH":"2026-03-05T14:00:01.999872","MEAN_MOTION":15.81963815,"ECCENTRICITY":0.00015597,"INCLINATION":42.9977,"RA_OF_ASC_NODE":274.9325,"ARG_OF_PERICENTER":255.7305,"MEAN_ANOMALY":339.7788,"EPHEMERIS_TYPE":0,"CLASSIFICATION_TYPE":"U","NORAD_CAT_ID":67908,"ELEMENT_SET_NO":999,"REV_AT_EPOCH":298,"BSTAR":0.00038534047,"MEAN_MOTION_DOT":0.0008117,"MEAN_MOTION_DDOT":0},{"OBJECT_NAME":"STARLINK-36822","OBJECT_ID":"2026-036F","EPOCH":"2026-03-05T14:00:01.999872","MEAN_MOTION":15.819815,"ECCENTRICITY":0.00018376,"INCLINATION":42.9978,"RA_OF_ASC_NODE":274.9219,"ARG_OF_PERICENTER":239.9407,"MEAN_ANOMALY":359.8343,"EPHEMERIS_TYPE":0,"CLASSIFICATION_TYPE":"U","NORAD_CAT_ID":67909,"ELEMENT_SET_NO":999,"REV_AT_EPOCH":298,"BSTAR":0.00028219346,"MEAN_MOTION_DOT":0.00059199,"MEAN_MOTION_DDOT":0},{"OBJECT_NAME":"STARLINK-36847","OBJECT_ID":"2026-036G","EPOCH":"2026-03-05T14:00:01.999872","MEAN_MOTION":15.81938593,"ECCENTRICITY":0.00015835,"INCLINATION":42.9985,"RA_OF_ASC_NODE":274.911,"ARG_OF_PERICENTER":265.6765,"MEAN_ANOMALY":338.3884,"EPHEMERIS_TYPE":0,"CLASSIFICATION_TYPE":"U","NORAD_CAT_ID":67910,"ELEMENT_SET_NO":999,"REV_AT_EPOCH":298,"BSTAR":0.00068914926,"MEAN_MOTION_DOT":0.00146525,"MEAN_MOTION_DDOT":0},{"OBJECT_NAME":"STARLINK-36736","OBJECT_ID":"2026-036H","EPOCH":"2026-03-05T14:00:01.999872","MEAN_MOTION":15.81980474,"ECCENTRICITY":0.00015841,"INCLINATION":42.9985,"RA_OF_ASC_NODE":274.8995,"ARG_OF_PERICENTER":292.9121,"MEAN_ANOMALY":315.4113,"EPHEMERIS_TYPE":0,"CLASSIFICATION_TYPE":"U","NORAD_CAT_ID":67911,"ELEMENT_SET_NO":999,"REV_AT_EPOCH":298,"BSTAR":0.00037970902,"MEAN_MOTION_DOT":0.00080028,"MEAN_MOTION_DDOT":0},{"OBJECT_NAME":"STARLINK-36676","OBJECT_ID":"2026-036J","EPOCH":"2026-03-05T14:00:01.999872","MEAN_MOTION":15.81945669,"ECCENTRICITY":0.00020484,"INCLINATION":42.9985,"RA_OF_ASC_NODE":274.8894,"ARG_OF_PERICENTER":251.8567,"MEAN_ANOMALY":0.7615,"EPHEMERIS_TYPE":0,"CLASSIFICATION_TYPE":"U","NORAD_CAT_ID":67912,"ELEMENT_SET_NO":999,"REV_AT_EPOCH":298,"BSTAR":0.00051930702,"MEAN_MOTION_DOT":0.00109852,"MEAN_MOTION_DDOT":0},{"OBJECT_NAME":"STARLINK-36690","OBJECT_ID":"2026-036K","EPOCH":"2026-03-05T14:00:01.999872","MEAN_MOTION":15.81938146,"ECCENTRICITY":0.00014368,"INCLINATION":42.9984,"RA_OF_ASC_NODE":274.8781,"ARG_OF_PERICENTER":278.494,"MEAN_ANOMALY":338.3837,"EPHEMERIS_TYPE":0,"CLASSIFICATION_TYPE":"U","NORAD_CAT_ID":67913,"ELEMENT_SET_NO":999,"REV_AT_EPOCH":298,"BSTAR":0.00065284267,"MEAN_MOTION_DOT":0.00138646,"MEAN_MOTION_DDOT":0},{"OBJECT_NAME":"STARLINK-36724","OBJECT_ID":"2026-036L","EPOCH":"2026-03-05T14:00:01.999872","MEAN_MOTION":15.81949074,"ECCENTRICITY":0.00018106,"INCLINATION":42.9986,"RA_OF_ASC_NODE":274.8562,"ARG_OF_PERICENTER":291.3131,"MEAN_ANOMALY":334.1154,"EPHEMERIS_TYPE":0,"CLASSIFICATION_TYPE":"U","NORAD_CAT_ID":67914,"ELEMENT_SET_NO":999,"REV_AT_EPOCH":298,"BSTAR":0.00049722079,"MEAN_MOTION_DOT":0.00105114,"MEAN_MOTION_DDOT":0},{"OBJECT_NAME":"STARLINK-36723","OBJECT_ID":"2026-036M","EPOCH":"2026-03-05T14:00:01.999872","MEAN_MOTION":15.81945615,"ECCENTRICITY":0.00015333,"INCLINATION":42.9986,"RA_OF_ASC_NODE":274.8674,"ARG_OF_PERICENTER":261.2489,"MEAN_ANOMALY":359.9015,"EPHEMERIS_TYPE":0,"CLASSIFICATION_TYPE":"U","NORAD_CAT_ID":67915,"ELEMENT_SET_NO":999,"REV_AT_EPOCH":298,"BSTAR":0.0006043765,"MEAN_MOTION_DOT":0.00128203,"MEAN_MOTION_DDOT":0},{"OBJECT_NAME":"STARLINK-36721","OBJECT_ID":"2026-036N","EPOCH":"2026-03-05T14:00:01.999872","MEAN_MOTION":15.81899826,"ECCENTRICITY":0.00017012,"INCLINATION":42.9984,"RA_OF_ASC_NODE":274.8466,"ARG_OF_PERICENTER":296.7216,"MEAN_ANOMALY":332.9989,"EPHEMERIS_TYPE":0,"CLASSIFICATION_TYPE":"U","NORAD_CAT_ID":67916,"ELEMENT_SET_NO":999,"REV_AT_EPOCH":298,"BSTAR":0.0009050332,"MEAN_MOTION_DOT":0.00193295,"MEAN_MOTION_DDOT":0},{"OBJECT_NAME":"STARLINK-36722","OBJECT_ID":"2026-036P","EPOCH":"2026-03-05T14:00:01.999872","MEAN_MOTION":15.81913636,"ECCENTRICITY":0.00017398,"INCLINATION":42.9964,"RA_OF_ASC_NODE":274.8354,"ARG_OF_PERICENTER":284.8254,"MEAN_ANOMALY":349.1586,"EPHEMERIS_TYPE":0,"CLASSIFICATION_TYPE":"U","NORAD_CAT_ID":67917,"ELEMENT_SET_NO":999,"REV_AT_EPOCH":298,"BSTAR":0.00070718544,"MEAN_MOTION_DOT":0.00150265,"MEAN_MOTION_DDOT":0},{"OBJECT_NAME":"STARLINK-36341","OBJECT_ID":"2026-036Q","EPOCH":"2026-03-05T14:00:01.999872","MEAN_MOTION":15.81955594,"ECCENTRICITY":0.00017335,"INCLINATION":42.9938,"RA_OF_ASC_NODE":274.8133,"ARG_OF_PERICENTER":251.6732,"MEAN_ANOMALY":30.8333,"EPHEMERIS_TYPE":0,"CLASSIFICATION_TYPE":"U","NORAD_CAT_ID":67918,"ELEMENT_SET_NO":999,"REV_AT_EPOCH":298,"BSTAR":0.00055732853,"MEAN_MOTION_DOT":0.001181,"MEAN_MOTION_DDOT":0},{"OBJECT_NAME":"STARLINK-36663","OBJECT_ID":"2026-036R","EPOCH":"2026-03-05T14:00:01.999872","MEAN_MOTION":15.8190713,"ECCENTRICITY":0.00022378,"INCLINATION":42.9966,"RA_OF_ASC_NODE":274.8246,"ARG_OF_PERICENTER":286.058,"MEAN_ANOMALY":352.201,"EPHEMERIS_TYPE":0,"CLASSIFICATION_TYPE":"U","NORAD_CAT_ID":67919,"ELEMENT_SET_NO":999,"REV_AT_EPOCH":298,"BSTAR":0.00076067982,"MEAN_MOTION_DOT":0.00161848,"MEAN_MOTION_DDOT":0},{"OBJECT_NAME":"STARLINK-36375","OBJECT_ID":"2026-036S","EPOCH":"2026-03-05T14:00:01.999872","MEAN_MOTION":15.81973599,"ECCENTRICITY":0.00020753,"INCLINATION":42.9951,"RA_OF_ASC_NODE":274.803,"ARG_OF_PERICENTER":264.8242,"MEAN_ANOMALY":21.9565,"EPHEMERIS_TYPE":0,"CLASSIFICATION_TYPE":"U","NORAD_CAT_ID":67920,"ELEMENT_SET_NO":999,"REV_AT_EPOCH":298,"BSTAR":0.00028926862,"MEAN_MOTION_DOT":0.00060686,"MEAN_MOTION_DDOT":0},{"OBJECT_NAME":"STARLINK-36405","OBJECT_ID":"2026-036T","EPOCH":"2026-03-05T14:00:01.999872","MEAN_MOTION":15.81955709,"ECCENTRICITY":0.00018578,"INCLINATION":42.9952,"RA_OF_ASC_NODE":274.7926,"ARG_OF_PERICENTER":253.8314,"MEAN_ANOMALY":37.2297,"EPHEMERIS_TYPE":0,"CLASSIFICATION_TYPE":"U","NORAD_CAT_ID":67921,"ELEMENT_SET_NO":999,"REV_AT_EPOCH":298,"BSTAR":0.00041073435,"MEAN_MOTION_DOT":0.00086579,"MEAN_MOTION_DDOT":0},{"OBJECT_NAME":"STARLINK-36383","OBJECT_ID":"2026-036U","EPOCH":"2026-03-05T14:00:01.999872","MEAN_MOTION":15.81959675,"ECCENTRICITY":0.00019946,"INCLINATION":42.9942,"RA_OF_ASC_NODE":274.7817,"ARG_OF_PERICENTER":272.5737,"MEAN_ANOMALY":22.7547,"EPHEMERIS_TYPE":0,"CLASSIFICATION_TYPE":"U","NORAD_CAT_ID":67922,"ELEMENT_SET_NO":999,"REV_AT_EPOCH":298,"BSTAR":0.00044774405,"MEAN_MOTION_DOT":0.00094534,"MEAN_MOTION_DDOT":0}]
