STARLINK-36742          
1 67907U 26036D   26064.58335648  .00021549  00000+0  10467-3 0  9997
2 67907  42.9978 274.9428 0001915 243.9960 347.2249 15.82004400  2989
STARLINK-36827          
1 67908U 26036E   26064.58335648  .00081170  00000+0  38534-3 0  9999
2 67908  42.9977 274.9325 0001559 255.7305 339.7788 15.81963815  2980
STARLINK-36822          
1 67909U 26036F   26064.58335648  .00059199  00000+0  28219-3 0  9995
2 67909  42.9978 274.9219 0001837 239.9407 359.8343 15.81981500  2981
STARLINK-36847          
1 67910U 26036G   26064.58335648  .00146525  00000+0  68915-3 0  9994
2 67910  42.9985 274.9110 0001583 265.6765 338.3884 15.81938593  2988
STARLINK-36736          
1 67911U 26036H   26064.58335648  .00080028  00000+0  37971-3 0  9998
2 67911  42.9985 274.8995 0001584 292.9121 315.4113 15.81980474  2985
STARLINK-36676          
1 67912U 26036J   26064.58335648  .00109852  00000+0  51931-3 0  9998
2 67912  42.9985 274.8894 0002048 251.8567   0.7615 15.81945669  2986
STARLINK-36690          
1 67913U 26036K   26064.58335648  .00138646  00000+0  65284-3 0  9998
2 67913  42.9984 274.8781 0001436 278.4940 338.3837 15.81938146  2989
STARLINK-36724          
1 67914U 26036L   26064.58335648  .00105114  00000+0  49722-3 0  9992
2 67914  42.9986 274.8562 0001810 291.3131 334.1154 15.81949074  2989
STARLINK-36723          
1 67915U 26036M   26064.58335648  .00128203  00000+0  60438-3 0  9994
2 67915  42.9986 274.8674 0001533 261.2489 359.9015 15.81945615  2986
STARLINK-36721          
1 67916U 26036N   26064.58335648  .00193295  00000+0  90503-3 0  9994
2 67916  42.9984 274.8466 0001701 296.7216 332.9989 15.81899826  2985
STARLINK-36722          
1 67917U 26036P   26064.58335648  .00150265  00000+0  70719-3 0  9992
2 67917  42.9964 274.8354 0001739 284.8254 349.1586 15.81913636  2980
STARLINK-36341          
1 67918U 26036Q   26064.58335648  .00118100  00000+0  55733-3 0  9994
2 67918  42.9938 274.8133 0001733 251.6732  30.8333 15.81955594  2987
STARLINK-36663          
1 67919U 26036R   26064.58335648  .00161848  00000+0  76068-3 0  9996
2 67919  42.9966 274.8246 0002237 286.0580 352.2010 15.81907130  2983
STARLINK-36375          
1 67920U 26036S   26064.58335648  .00060686  00000+0  28927-3 0  9997
2 67920  42.9951 274.8030 0002075 264.8242  21.9565 15.81973599  2986
STARLINK-36405          
1 67921U 26036T   26064.58335648  .00086579  00000+0  41073-3 0  9994
2 67921  42.9952 274.7926 0001857 253.8314  37.2297 15.81955709  2981
STARLINK-36383          
1 67922U 26036U   26064.58335648  .00094534  00000+0  44774-3 0  9996
2 67922  42.9942 274.7817 0001994 272.5737  22.7547 15.81959675  2982
